sat04645
1 04645U 70025AD  20046.33085237 -.00000064  00000-0 -76059-4 0  9999
2 04645  99.9368 320.5615 0329575 311.0988 171.1346 12.86051006338431
